NORAD_CAT_ID,OBJECT_NAME,OBJECT_TYPE,EPOCH,MEAN_MOTION,ECCENTRICITY,INCLINATION,RA_OF_ASC_NODE,ARG_OF_PERICENTER,MEAN_ANOMALY,BSTAR,MEAN_MOTION_DOT,MEAN_MOTION_DDOT,TLE_LINE0,TLE_LINE1,TLE_LINE2,SEMIMAJOR_AXIS,PERIOD,APOGEE,PERIGEE,DECAYED
53819.0,STARLINK-4738,PAYLOAD,2023-07-07 19:22:56,15.08809173,0.0001415,53.2175,5.2134,98.6824,261.4329,0.00076772,0.00011941,0.0,0 STARLINK-4738,1 53819U 22114B   23188.80759456  .00011941  00000-0  76772-3 0  9990,2 53819  53.2175   5.2134 0001415  98.6824 261.4329 15.08809173 44966,6917.975,95.44,540.819,538.861,0.0
53819.0,STARLINK-4738,PAYLOAD,2023-07-08 04:55:14,15.08840275,0.0001243,53.2174,3.4297,77.2423,282.8708,0.00019467,2.812e-05,0.0,0 STARLINK-4738,1 53819U 22114B   23189.20503398  .00002812  00000-0  19467-3 0  9992,2 53819  53.2174   3.4297 0001243  77.2423 282.8708 15.08840275 45026,6917.88,95.438,540.604,538.885,0.0
53819.0,STARLINK-4738,PAYLOAD,2023-07-09 11:07:34,15.08838921,0.0001011,53.2168,357.7814,74.8047,285.3057,1.026e-05,-1.24e-06,0.0,0 STARLINK-4738,1 53819U 22114B   23190.46359897 -.00000124  00000-0  10260-4 0  9993,2 53819  53.2168 357.7814 0001011  74.8047 285.3057 15.08838921 45218,6917.884,95.438,540.448,539.049,0.0
53819.0,STARLINK-4738,PAYLOAD,2023-07-10 17:19:53,15.08843926,0.000107,53.2172,352.1296,77.5279,282.5833,8.0353e-05,9.91e-06,0.0,0 STARLINK-4738,1 53819U 22114B   23191.72214999  .00000991  00000-0  80353-4 0  9997,2 53819  53.2172 352.1296 0001070  77.5279 282.5833 15.08843926 45401,6917.868,95.437,540.474,538.993,0.0
53819.0,STARLINK-4738,PAYLOAD,2023-07-11 17:10:42,15.08822925,0.000112,53.2177,347.6684,86.9385,273.1735,8.5529e-05,1.073e-05,0.0,0 STARLINK-4738,1 53819U 22114B   23192.71576593  .00001073  00000-0  85529-4 0  9990,2 53819  53.2177 347.6684 0001120  86.9385 273.1735 15.08822925 45553,6917.933,95.439,540.572,539.023,0.0
53819.0,STARLINK-4738,PAYLOAD,2023-07-12 17:01:27,15.08847748,0.0001027,53.2175,343.2091,83.4018,276.7091,7.3745e-05,8.86e-06,0.0,0 STARLINK-4738,1 53819U 22114B   23193.70934979  .00000886  00000-0  73745-4 0  9994,2 53819  53.2175 343.2091 0001027  83.4018 276.7091 15.08847748 45707,6917.857,95.437,540.432,539.011,0.0
53819.0,STARLINK-4738,PAYLOAD,2023-07-13 16:52:15,15.08835198,0.000104,53.2182,338.7501,99.7423,260.3687,5.6612e-05,6.13e-06,0.0,0 STARLINK-4738,1 53819U 22114B   23194.70296170  .00000613  00000-0  56612-4 0  9991,2 53819  53.2182 338.7501 0001040  99.7423 260.3687 15.08835198 45857,6917.895,95.438,540.48,539.041,0.0
53819.0,STARLINK-4738,PAYLOAD,2023-07-14 16:43:02,15.0884781,0.0001011,53.2172,334.2887,90.2217,269.8891,-9.4994e-06,-4.39e-06,0.0,0 STARLINK-4738,1 53819U 22114B   23195.69655459 -.00000439  00000-0 -94994-5 0  9993,2 53819  53.2172 334.2887 0001011  90.2217 269.8891 15.08847810 46002,6917.857,95.437,540.421,539.022,0.0
53819.0,STARLINK-4738,PAYLOAD,2023-07-15 18:09:12,15.0884488,0.0001071,53.2172,329.5299,83.9954,276.116,0.00017763,2.541e-05,0.0,0 STARLINK-4738,1 53819U 22114B   23196.75639895  .00002541  00000-0  17763-3 0  9998,2 53819  53.2172 329.5299 0001071  83.9954 276.1160 15.08844880 46160,6917.865,95.437,540.471,538.99,0.0
53819.0,STARLINK-4738,PAYLOAD,2023-07-16 02:06:08,15.08837316,0.000118,53.2174,328.0432,76.1584,283.954,2.6273e-05,1.3e-06,0.0,0 STARLINK-4738,1 53819U 22114B   23197.08760397  .00000130  00000-0  26273-4 0  9996,2 53819  53.2174 328.0432 0001180  76.1584 283.9540 15.08837316 46219,6917.889,95.438,540.57,538.937,0.0
53819.0,STARLINK-4738,PAYLOAD,2023-07-17 14:40:00,15.08852988,0.0001021,53.2173,321.2037,81.5141,278.5967,0.00013304,1.831e-05,0.0,0 STARLINK-4738,1 53819U 22114B   23198.61111659  .00001831  00000-0  13304-3 0  9996,2 53819  53.2173 321.2037 0001021  81.5141 278.5967 15.08852988 46447,6917.841,95.437,540.412,538.999,0.0
53819.0,STARLINK-4738,PAYLOAD,2023-07-18 11:20:01,15.08849493,0.0001221,53.2171,317.3362,79.3701,280.7428,8.058e-05,9.95e-06,0.0,0 STARLINK-4738,1 53819U 22114B   23199.47223820  .00000995  00000-0  80580-4 0  9996,2 53819  53.2171 317.3362 0001221  79.3701 280.7428 15.08849493 46579,6917.851,95.437,540.561,538.872,0.0
53819.0,STARLINK-4738,PAYLOAD,2023-07-19 08:00:02,15.08837585,0.0001805,53.2171,313.4674,90.9902,269.1297,-8.5592e-05,-1.65e-05,0.0,0 STARLINK-4738,1 53819U 22114B   23200.33336470 -.00001650  00000-0 -85592-4 0  9999,2 53819  53.2171 313.4674 0001805  90.9902 269.1297 15.08837585 46701,6917.888,95.438,541.001,538.504,0.0
53819.0,STARLINK-4738,PAYLOAD,2023-07-19 15:56:58,15.08830355,0.0001043,53.2174,311.9835,97.9511,262.1599,-0.00020289,-3.514e-05,0.0,0 STARLINK-4738,1 53819U 22114B   23200.66456823 -.00003514  00000-0 -20289-3 0  9992,2 53819  53.2174 311.9835 0001043  97.9511 262.1599 15.08830355 46754,6917.91,95.438,540.496,539.053,0.0
53819.0,STARLINK-4738,PAYLOAD,2023-07-20 15:47:45,15.08851534,0.0001008,53.2168,307.5241,98.4485,261.6621,0.00020255,2.938e-05,0.0,0 STARLINK-4738,1 53819U 22114B   23201.65816107  .00002938  00000-0  20255-3 0  9997,2 53819  53.2168 307.5241 0001008  98.4485 261.6621 15.08851534 46905,6917.845,95.437,540.407,539.013,0.0
53819.0,STARLINK-4738,PAYLOAD,2023-07-21 07:41:37,15.08837737,0.0001024,53.2167,304.5486,132.5367,227.5712,0.00024961,3.687e-05,0.0,0 STARLINK-4738,1 53819U 22114B   23202.32056867  .00003687  00000-0  24961-3 0  9991,2 53819  53.2167 304.5486 0001024 132.5367 227.5712 15.08837737 47002,6917.887,95.438,540.461,539.044,0.0
53819.0,STARLINK-4738,PAYLOAD,2023-07-24 05:38:35,15.08837602,0.000157,53.2157,291.4629,119.1719,240.943,0.00011104,1.48e-05,0.0,0 STARLINK-4738,1 53819U 22114B   23205.23513114  .00001480  00000-0  11104-3 0  9991,2 53819  53.2157 291.4629 0001570 119.1719 240.9430 15.08837602 47986,6917.888,95.438,540.839,538.667,0.0
53819.0,STARLINK-4738,PAYLOAD,2023-07-25 11:50:55,15.08840205,0.000134,53.2144,285.8169,90.7046,269.4099,0.00010996,1.463e-05,0.0,0 STARLINK-4738,1 53819U 22114B   23206.49369259  .00001463  00000-0  10996-3 0  9998,2 53819  53.2144 285.8169 0001340  90.7046 269.4099 15.08840205 47632,6917.88,95.438,540.672,538.818,0.0
53819.0,STARLINK-4738,PAYLOAD,2023-07-26 08:30:55,15.08843346,0.0001583,53.2134,281.952,88.6049,271.5125,0.00010418,1.371e-05,0.0,0 STARLINK-4738,1 53819U 22114B   23207.35481004  .00001371  00000-0  10418-3 0  9994,2 53819  53.2134 281.9520 0001583  88.6049 271.5125 15.08843346 48305,6917.87,95.437,540.83,538.64,0.0
53819.0,STARLINK-4738,PAYLOAD,2023-07-26 14:52:27,15.08849082,0.0001677,53.2144,280.7659,68.6487,291.4684,0.00015381,2.161e-05,0.0,0 STARLINK-4738,1 53819U 22114B   23207.61976606  .00002161  00000-0  15381-3 0  9992,2 53819  53.2144 280.7659 0001677  68.6487 291.4684 15.08849082 47802,6917.853,95.437,540.878,538.558,0.0
53819.0,STARLINK-4738,PAYLOAD,2023-07-27 00:24:46,15.08840091,0.0001137,53.2135,278.977,86.2869,273.8253,5.5295e-05,5.92e-06,0.0,0 STARLINK-4738,1 53819U 22114B   23208.01721027  .00000592  00000-0  55295-4 0  9997,2 53819  53.2135 278.9770 0001137  86.2869 273.8253 15.08840091 47869,6917.88,95.438,540.532,538.959,0.0
53819.0,STARLINK-4738,PAYLOAD,2023-07-27 05:10:56,15.0884142,0.000115,53.2135,278.0856,85.7601,274.3523,7.2215e-05,8.62e-06,0.0,0 STARLINK-4738,1 53819U 22114B   23208.21592938  .00000862  00000-0  72215-4 0  9997,2 53819  53.2135 278.0856 0001150  85.7601 274.3523 15.08841420 48435,6917.876,95.437,540.537,538.945,0.0
53819.0,STARLINK-4738,PAYLOAD,2023-07-27 21:04:48,15.08824872,0.0003632,53.214,275.1072,79.495,280.6451,-0.00015902,-2.818e-05,0.0,0 STARLINK-4738,1 53819U 22114B   23208.87834326 -.00002818  00000-0 -15902-3 0  9993,2 53819  53.2140 275.1072 0003632  79.4950 280.6451 15.08824872 48536,6917.927,95.439,542.304,537.279,0.0
53819.0,STARLINK-4738,PAYLOAD,2023-07-28 05:01:43,15.08825514,8.71e-05,53.2158,273.6256,96.8231,263.286,-0.00014974,-2.669e-05,0.0,0 STARLINK-4738,1 53819U 22114B   23209.20953582 -.00002669  00000-0 -14974-3 0  9999,2 53819  53.2158 273.6256 0000871  96.8231 263.2860 15.08825514 48040,6917.925,95.438,540.392,539.187,0.0
53819.0,STARLINK-4738,PAYLOAD,2023-07-28 08:12:29,15.08831632,0.0001085,53.2157,273.0294,99.409,260.7024,-0.0001524,-2.712e-05,0.0,0 STARLINK-4738,1 53819U 22114B   23209.34201335 -.00002712  00000-0 -15240-3 0  9992,2 53819  53.2157 273.0294 0001085  99.4090 260.7024 15.08831632 48609,6917.906,95.438,540.522,539.02,0.0
53819.0,STARLINK-4738,PAYLOAD,2023-07-28 16:09:25,15.08834332,0.0001107,53.2154,271.5422,102.5299,257.5817,-8.2465e-05,-1.6e-05,0.0,0 STARLINK-4738,1 53819U 22114B   23209.67321342 -.00001600  00000-0 -82465-4 0  9998,2 53819  53.2154 271.5422 0001107 102.5299 257.5817 15.08834332 48114,6917.898,95.438,540.529,538.997,0.0
53819.0,STARLINK-4738,PAYLOAD,2023-07-29 14:24:49,15.08845569,0.0001042,53.2157,267.3799,96.5613,263.5497,0.00046532,7.127e-05,0.0,0 STARLINK-4738,1 53819U 22114B   23210.60057481  .00007127  00000-0  46532-3 0  9995,2 53819  53.2157 267.3799 0001042  96.5613 263.5497 15.08845569 48257,6917.863,95.437,540.449,539.008,0.0
53819.0,STARLINK-4738,PAYLOAD,2023-07-30 03:07:54,15.08842123,9.68e-05,53.2149,265.0021,99.6368,260.4734,0.00022667,3.322e-05,0.0,0 STARLINK-4738,1 53819U 22114B   23211.13049640  .00003322  00000-0  22667-3 0  9998,2 53819  53.2149 265.0021 0000968  99.6368 260.4734 15.08842123 48330,6917.874,95.437,540.409,539.069,0.0
53819.0,STARLINK-4738,PAYLOAD,2023-07-31 02:58:42,15.0884186,0.0001105,53.2148,260.5416,82.2673,277.8445,0.00013331,1.835e-05,0.0,0 STARLINK-4738,1 53819U 22114B   23212.12409786  .00001835  00000-0  13331-3 0  9994,2 53819  53.2148 260.5416 0001105  82.2673 277.8445 15.08841860 48482,6917.875,95.437,540.504,538.975,0.0
53819.0,STARLINK-4738,PAYLOAD,2023-08-01 12:21:47,15.08847548,0.0001071,53.2155,254.2967,82.928,277.1834,0.00011905,1.608e-05,0.0,0 STARLINK-4738,1 53819U 22114B   23213.51513346  .00001608  00000-0  11905-3 0  9999,2 53819  53.2155 254.2967 0001071  82.9280 277.1834 15.08847548 48691,6917.857,95.437,540.463,538.981,0.0
